SL-12 R/B(2)            
1 15772U 85042D   26197.14668152  .00000031  00000+0  35509-4 0  9998
2 15772  71.1066 176.3311 0037344 284.7885 149.6546 14.22010984132653
SL-14 R/B               
1 15945U 85069B   26197.04636280  .00000212  00000+0  21015-4 0  9993
2 15945  82.5261 264.2258 0020088 124.6685 235.6429 14.86535402191908
SL-16 R/B               
1 16182U 85097B   26197.14712691  .00000191  00000+0  11950-3 0  9992
2 16182  71.0006 230.1086 0005688  49.8079   7.3089 14.16613191105420
SL-14 R/B               
1 16496U 86006B   26196.92033719  .00000239  00000+0  22571-4 0  9998
2 16496  82.5283 139.0753 0075529 206.4327 153.3030 14.86968642168268
COSMOS 1743             
1 16719U 86034A   26196.73165927  .00043247  00000+0  36371-3 0  9991
2 16719  82.5282 298.3228 0005393 175.2370 184.8944 15.69664907200263
SL-14 R/B               
1 16792U 86046B   26196.84439505  .00000230  00000+0  23525-4 0  9996
2 16792  82.4839 319.0973 0023582 160.9114 199.2992 14.85690845145433
SL-14 R/B               
1 16882U 86055B   26196.91277220  .00000210  00000+0  21327-4 0  9994
2 16882  82.5204   6.1216 0017309 267.6789 205.7872 14.85740566138402
AJISAI (EGS)            
1 16908U 86061A   26197.21411147 -.00000074  00000+0  16722-3 0  9993
2 16908  50.0102  58.1384 0011082 254.5218 208.7924 12.44516706484006
SL-14 R/B               
1 17567U 87024B   26196.89853475  .00000224  00000+0  22603-4 0  9994
2 17567  82.5298 332.2629 0017877 191.3958 168.6856 14.86231986107179
COSMOS 1833             
1 17589U 87027A   26197.06108438  .00000072  00000+0  64053-4 0  9999
2 17589  70.9212  56.1802 0024294   7.3148 352.8322 14.13066857 28454
SL-16 R/B               
1 17590U 87027B   26197.15560525  .00000149  00000+0  97465-4 0  9998
2 17590  71.0033   5.7818 0007146 280.5911  79.4407 14.17173753 33546
SL-14 R/B               
1 17912U 87038B   26197.02689247  .00000208  00000+0  21208-4 0  9995
2 17912  82.5013 175.9065 0020848  99.6497 260.7075 14.85461792 98281
COSMOS 1844             
1 17973U 87041A   26197.09972727  .00000058  00000+0  54982-4 0  9999
2 17973  70.8998 123.3219 0031277 193.9868 166.0390 14.14580955 21746
SL-14 R/B               
1 18153U 87055B   26197.11580031  .00000178  00000+0  17690-4 0  9999
2 18153  82.4970 227.9572 0019367 311.8919  48.0644 14.85727294 89004
COSMOS 1867             
1 18187U 87060A   26196.70631790 -.00000071  00000+0  11161-4 0  9995
2 18187  65.0119 308.1886 0017162 282.0240  77.8921 14.31518536 38268
SL-14 R/B               
1 18749U 88001B   26197.11988045  .00000199  00000+0  20153-4 0  9990
2 18749  82.5119  74.5526 0018243 168.8069 191.3557 14.85627068 61096
COSMOS 1933             
1 18958U 88020A   26196.89434975  .00001866  00000+0  87934-4 0  9997
2 18958  82.5141 124.0058 0005914 105.5346 254.6541 15.18890991 69684
SL-3 R/B                
1 19046U 88032B   26197.19107369  .00001971  00000+0  91231-4 0  9999
2 19046  97.5275 180.2091 0026593 142.3700 217.9402 15.21035531 71638
SL-16 R/B               
1 19120U 88039B   26197.15123380 -.00000054  00000+0 -26318-5 0  9994
2 19120  71.0126 156.9134 0020568 147.8617 212.3767 14.19631403976615
COSMOS 1953             
1 19210U 88050A   26197.05379980  .00003837  00000+0  12938-3 0  9996
2 19210  82.5059  28.9127 0011443  37.3060 322.8973 15.30344243 57404
SL-8 R/B                
1 19257U 88053B   26197.13472675  .00000113  00000+0  45057-4 0  9997
2 19257  74.0457 235.6971 0019766  20.9560  37.0694 14.38978568995075
COSMOS 1975             
1 19573U 88093A   26196.87486997  .00003422  00000+0  11762-3 0  9995
2 19573  82.5199 348.8348 0012510  80.3706 279.8947 15.29666698 38995
SL-14 R/B               
1 19574U 88093B   26197.22630913  .00000185  00000+0  18407-4 0  9992
2 19574  82.5316 281.3841 0019931 336.8096  52.8603 14.85760375 20101
SL-16 R/B               
1 19650U 88102B   26197.10657606 -.00000060  00000+0 -63004-5 0  9991
2 19650  70.9976 241.2894 0014253 184.0920 176.0089 14.16166587945071
INTERCOSMOS 24          
1 20261U 89080A   26197.00418067  .00000123  00000+0  32334-4 0  9991
2 20261  82.6050  20.8875 1187146 355.0684   3.9493 12.59692228682957
SL-14 R/B               
1 20262U 89080C   26197.12262318  .00000068  00000+0  19804-4 0  9996
2 20262  82.5932  90.7162 1228737 251.1688  95.2451 12.50578583676200
DELTA 1 R/B             
1 20323U 89089B   26197.11869984  .00000118  00000+0  37609-4 0  9993
2 20323  97.0635  24.0470 0070630  77.1251 283.7825 14.50748100914355
ARIANE 40 R/B           
1 20443U 90005H   26197.16017022  .00000095  00000+0  43467-4 0  9992
2 20443  98.2944 253.8730 0010335 171.1986 188.9386 14.39940952911295
DELTA 2 R/B(1)          
1 20453U 90008B   26196.97303538  .00082960  00000+0  50504-3 0  9994
2 20453  35.5991  42.3909 0058628  23.4105 336.9288 15.73725321946238
COSMOS 2058             
1 20465U 90010A   26197.18636582  .00001692  00000+0  96416-4 0  9998
2 20465  82.4673 280.7544 0007989 245.7817 114.2579 15.12159506961657
SL-14 R/B               
1 20466U 90010B   26196.89845211  .00000177  00000+0  18567-4 0  9995
2 20466  82.5035 146.9822 0018415 234.7833 125.1659 14.83663310947491
