OBJECT_NAME,OBJECT_ID,EPOCH,MEAN_MOTION,ECCENTRICITY,INCLINATION,RA_OF_ASC_NODE,ARG_OF_PERICENTER,MEAN_ANOMALY,EPHEMERIS_TYPE,CLASSIFICATION_TYPE,NORAD_CAT_ID,ELEMENT_SET_NO,REV_AT_EPOCH,BSTAR,MEAN_MOTION_DOT,MEAN_MOTION_DDOT
SL-12 R/B(2),1985-042D,2026-07-16T03:31:13.283328,14.22010984,.0037344,71.1066,176.3311,284.7885,149.6546,0,U,15772,999,13265,.35509E-4,.31E-6,0
SL-14 R/B,1985-069B,2026-07-16T01:06:45.745920,14.86535402,.0020088,82.5261,264.2258,124.6685,235.6429,0,U,15945,999,19190,.21015E-4,.212E-5,0
SL-16 R/B,1985-097B,2026-07-16T03:31:51.765024,14.16613191,.0005688,71.0006,230.1086,49.8079,7.3089,0,U,16182,999,10542,.1195E-3,.191E-5,0
SL-14 R/B,1986-006B,2026-07-15T22:05:17.133216,14.86968642,.0075529,82.5283,139.0753,206.4327,153.3030,0,U,16496,999,16826,.22571E-4,.239E-5,0
COSMOS 1743,1986-034A,2026-07-15T17:33:35.360928,15.69664907,.00053934,82.5282,298.3228,175.2370,184.8944,0,U,16719,999,20026,.36371453E-3,.43247E-3,0
SL-14 R/B,1986-046B,2026-07-15T20:15:55.732320,14.85690845,.0023582,82.4839,319.0973,160.9114,199.2992,0,U,16792,999,14543,.23525E-4,.23E-5,0
SL-14 R/B,1986-055B,2026-07-15T21:54:23.518080,14.85740566,.0017309,82.5204,6.1216,267.6789,205.7872,0,U,16882,999,13840,.21327E-4,.21E-5,0
AJISAI (EGS),1986-061A,2026-07-16T05:08:19.231008,12.44516706,.0011082,50.0102,58.1384,254.5218,208.7924,0,U,16908,999,48400,.16722E-3,-.74E-6,0
SL-14 R/B,1987-024B,2026-07-15T21:33:53.402400,14.86231986,.0017877,82.5298,332.2629,191.3958,168.6856,0,U,17567,999,10717,.22603E-4,.224E-5,0
COSMOS 1833,1987-027A,2026-07-16T01:27:57.690432,14.13066857,.0024294,70.9212,56.1802,7.3148,352.8322,0,U,17589,999,2845,.64053E-4,.72E-6,0
SL-16 R/B,1987-027B,2026-07-16T03:44:04.293600,14.17173753,.0007146,71.0033,5.7818,280.5911,79.4407,0,U,17590,999,3354,.97465E-4,.149E-5,0
SL-14 R/B,1987-038B,2026-07-16T00:38:43.509408,14.85461792,.0020848,82.5013,175.9065,99.6497,260.7075,0,U,17912,999,9828,.21208E-4,.208E-5,0
COSMOS 1844,1987-041A,2026-07-16T02:23:36.436128,14.14580955,.0031277,70.8998,123.3219,193.9868,166.0390,0,U,17973,999,2174,.54982E-4,.58E-6,0
SL-14 R/B,1987-055B,2026-07-16T02:46:45.146784,14.85727294,.0019367,82.4970,227.9572,311.8919,48.0644,0,U,18153,999,8900,.1769E-4,.178E-5,0
COSMOS 1867,1987-060A,2026-07-15T16:57:05.866560,14.31518536,.00171625,65.0119,308.1886,282.0240,77.8921,0,U,18187,999,3826,.11160832E-4,-.71E-6,0
SL-14 R/B,1988-001B,2026-07-16T02:52:37.670880,14.85627068,.0018243,82.5119,74.5526,168.8069,191.3557,0,U,18749,999,6109,.20153E-4,.199E-5,0
COSMOS 1933,1988-020A,2026-07-15T21:27:51.818400,15.18890991,.0005914,82.5141,124.0058,105.5346,254.6541,0,U,18958,999,6968,.87934E-4,.1866E-4,0
SL-3 R/B,1988-032B,2026-07-16T04:35:08.766816,15.21035531,.0026593,97.5275,180.2091,142.3700,217.9402,0,U,19046,999,7163,.91231E-4,.1971E-4,0
SL-16 R/B,1988-039B,2026-07-16T03:37:46.600320,14.19631403,.0020568,71.0126,156.9134,147.8617,212.3767,0,U,19120,999,97661,-.26318E-5,-.54E-6,0
COSMOS 1953,1988-050A,2026-07-16T01:17:28.302720,15.30344243,.0011443,82.5059,28.9127,37.3060,322.8973,0,U,19210,999,5740,.12938E-3,.3837E-4,0
SL-8 R/B,1988-053B,2026-07-16T03:14:00.391200,14.38978568,.0019766,74.0457,235.6971,20.9560,37.0694,0,U,19257,999,99507,.45057E-4,.113E-5,0
COSMOS 1975,1988-093A,2026-07-15T20:59:48.765408,15.29666698,.001251,82.5199,348.8348,80.3706,279.8947,0,U,19573,999,3899,.11762E-3,.3422E-4,0
SL-14 R/B,1988-093B,2026-07-16T05:25:53.108832,14.85760375,.0019931,82.5316,281.3841,336.8096,52.8603,0,U,19574,999,2010,.18407E-4,.185E-5,0
SL-16 R/B,1988-102B,2026-07-16T02:33:28.171584,14.16166587,.0014253,70.9976,241.2894,184.0920,176.0089,0,U,19650,999,94507,-.63004E-5,-.6E-6,0
INTERCOSMOS 24,1989-080A,2026-07-16T00:06:01.209888,12.59692228,.1187146,82.6050,20.8875,355.0684,3.9493,0,U,20261,999,68295,.32334E-4,.123E-5,0
SL-14 R/B,1989-080C,2026-07-16T02:56:34.642752,12.50578583,.1228737,82.5932,90.7162,251.1688,95.2451,0,U,20262,999,67620,.19804E-4,.68E-6,0
DELTA 1 R/B,1989-089B,2026-07-16T02:50:55.666176,14.50748100,.007063,97.0635,24.0470,77.1251,283.7825,0,U,20323,999,91435,.37609E-4,.118E-5,0
ARIANE 40 R/B,1990-005H,2026-07-16T03:50:38.707008,14.39940952,.0010335,98.2944,253.8730,171.1986,188.9386,0,U,20443,999,91129,.43467E-4,.95E-6,0
DELTA 2 R/B(1),1990-008B,2026-07-15T23:21:10.256832,15.73725321,.0058628,35.5991,42.3909,23.4105,336.9288,0,U,20453,999,94623,.50504E-3,.8296E-3,0
COSMOS 2058,1990-010A,2026-07-16T04:28:22.006848,15.12159506,.0007989,82.4673,280.7544,245.7817,114.2579,0,U,20465,999,96165,.96416E-4,.1692E-4,0
SL-14 R/B,1990-010B,2026-07-15T21:33:46.262304,14.83663310,.0018415,82.5035,146.9822,234.7833,125.1659,0,U,20466,999,94749,.18567E-4,.177E-5,0
